{"fetched_at":"2026-07-05T17:36:11.010Z","source":"https://celestrak.org/NORAD/elements/gp.php?GROUP=planet&FORMAT=JSON","constellation":"superdove","records":[{"OBJECT_NAME":"FLOCK 4BE-3","OBJECT_ID":"2024-149CX","EPOCH":"2026-07-05T04:31:58.462176","CLASSIFICATION_TYPE":"U","MEAN_MOTION":15.42139466,"ECCENTRICITY":0.00040356,"INCLINATION":97.369,"RA_OF_ASC_NODE":270.2799,"ARG_OF_PERICENTER":199.9964,"MEAN_ANOMALY":160.1126,"EPHEMERIS_TYPE":0,"NORAD_CAT_ID":60561,"ELEMENT_SET_NO":999,"REV_AT_EPOCH":10511,"BSTAR":0.00070792265,"MEAN_MOTION_DOT":0.00030315,"MEAN_MOTION_DDOT":0},{"OBJECT_NAME":"FLOCK 4BE-19","OBJECT_ID":"2024-149CZ","EPOCH":"2026-07-05T04:46:39.743904","CLASSIFICATION_TYPE":"U","MEAN_MOTION":15.45291049,"ECCENTRICITY":0.00049107,"INCLINATION":97.3738,"RA_OF_ASC_NODE":271.9177,"ARG_OF_PERICENTER":206.8432,"MEAN_ANOMALY":153.2563,"EPHEMERIS_TYPE":0,"NORAD_CAT_ID":60563,"ELEMENT_SET_NO":999,"REV_AT_EPOCH":10520,"BSTAR":0.00081771925,"MEAN_MOTION_DOT":0.00039002,"MEAN_MOTION_DDOT":0},{"OBJECT_NAME":"FLOCK 4G-8","OBJECT_ID":"2025-009E","EPOCH":"2026-07-05T04:51:36.546048","CLASSIFICATION_TYPE":"U","MEAN_MOTION":15.30105913,"ECCENTRICITY":0.0003077,"INCLINATION":97.4003,"RA_OF_ASC_NODE":268.1352,"ARG_OF_PERICENTER":231.4207,"MEAN_ANOMALY":128.6758,"EPHEMERIS_TYPE":0,"NORAD_CAT_ID":62613,"ELEMENT_SET_NO":999,"REV_AT_EPOCH":8167,"BSTAR":0.00058701269,"MEAN_MOTION_DOT":0.00017048,"MEAN_MOTION_DDOT":0},{"OBJECT_NAME":"FLOCK 4G-13","OBJECT_ID":"2025-009N","EPOCH":"2026-07-05T03:29:11.396256","CLASSIFICATION_TYPE":"U","MEAN_MOTION":15.47646713,"ECCENTRICITY":0.00056943,"INCLINATION":97.3945,"RA_OF_ASC_NODE":269.7655,"ARG_OF_PERICENTER":223.0558,"MEAN_ANOMALY":137.0247,"EPHEMERIS_TYPE":0,"NORAD_CAT_ID":62621,"ELEMENT_SET_NO":999,"REV_AT_EPOCH":8177,"BSTAR":0.0026046658,"MEAN_MOTION_DOT":0.00136601,"MEAN_MOTION_DDOT":0},{"OBJECT_NAME":"FLOCK 4G-9","OBJECT_ID":"2025-009P","EPOCH":"2026-07-05T03:33:48.498336","CLASSIFICATION_TYPE":"U","MEAN_MOTION":15.28384818,"ECCENTRICITY":0.00032489,"INCLINATION":97.3954,"RA_OF_ASC_NODE":266.9682,"ARG_OF_PERICENTER":249.7053,"MEAN_ANOMALY":110.3837,"EPHEMERIS_TYPE":0,"NORAD_CAT_ID":62622,"ELEMENT_SET_NO":999,"REV_AT_EPOCH":8160,"BSTAR":0.0005651311,"MEAN_MOTION_DOT":0.00015563,"MEAN_MOTION_DDOT":0},{"OBJECT_NAME":"FLOCK 4G-7","OBJECT_ID":"2025-009R","EPOCH":"2026-07-05T04:24:56.736864","CLASSIFICATION_TYPE":"U","MEAN_MOTION":15.29691513,"ECCENTRICITY":0.0001577,"INCLINATION":97.3938,"RA_OF_ASC_NODE":267.4026,"ARG_OF_PERICENTER":219.1172,"MEAN_ANOMALY":140.9955,"EPHEMERIS_TYPE":0,"NORAD_CAT_ID":62624,"ELEMENT_SET_NO":999,"REV_AT_EPOCH":8165,"BSTAR":0.00064553647,"MEAN_MOTION_DOT":0.0001852,"MEAN_MOTION_DDOT":0},{"OBJECT_NAME":"FLOCK 4G-12","OBJECT_ID":"2025-009S","EPOCH":"2026-07-05T04:17:24.809568","CLASSIFICATION_TYPE":"U","MEAN_MOTION":15.29621526,"ECCENTRICITY":0.00032163,"INCLINATION":97.4016,"RA_OF_ASC_NODE":267.9373,"ARG_OF_PERICENTER":228.6206,"MEAN_ANOMALY":131.4758,"EPHEMERIS_TYPE":0,"NORAD_CAT_ID":62625,"ELEMENT_SET_NO":999,"REV_AT_EPOCH":8165,"BSTAR":0.00068839231,"MEAN_MOTION_DOT":0.00019717,"MEAN_MOTION_DDOT":0},{"OBJECT_NAME":"FLOCK 4G-11","OBJECT_ID":"2025-009W","EPOCH":"2026-07-04T15:23:04.341408","CLASSIFICATION_TYPE":"U","MEAN_MOTION":15.29709073,"ECCENTRICITY":0.00015535,"INCLINATION":97.3918,"RA_OF_ASC_NODE":266.9723,"ARG_OF_PERICENTER":228.9228,"MEAN_ANOMALY":131.1878,"EPHEMERIS_TYPE":0,"NORAD_CAT_ID":62629,"ELEMENT_SET_NO":999,"REV_AT_EPOCH":8158,"BSTAR":0.00068420974,"MEAN_MOTION_DOT":0.00019647,"MEAN_MOTION_DDOT":0},{"OBJECT_NAME":"FLOCK 4G-26","OBJECT_ID":"2025-009AA","EPOCH":"2026-07-05T04:17:55.537728","CLASSIFICATION_TYPE":"U","MEAN_MOTION":15.2990478,"ECCENTRICITY":0.00026337,"INCLINATION":97.4011,"RA_OF_ASC_NODE":268.0948,"ARG_OF_PERICENTER":213.873,"MEAN_ANOMALY":146.2342,"EPHEMERIS_TYPE":0,"NORAD_CAT_ID":62633,"ELEMENT_SET_NO":999,"REV_AT_EPOCH":8166,"BSTAR":0.00072780687,"MEAN_MOTION_DOT":0.00021035,"MEAN_MOTION_DDOT":0},{"OBJECT_NAME":"FLOCK 4G-28","OBJECT_ID":"2025-009AB","EPOCH":"2026-07-05T04:17:34.882080","CLASSIFICATION_TYPE":"U","MEAN_MOTION":15.35156534,"ECCENTRICITY":0.00011798,"INCLINATION":97.4022,"RA_OF_ASC_NODE":270.799,"ARG_OF_PERICENTER":183.3038,"MEAN_ANOMALY":176.8198,"EPHEMERIS_TYPE":0,"NORAD_CAT_ID":62634,"ELEMENT_SET_NO":999,"REV_AT_EPOCH":8184,"BSTAR":0.00044958755,"MEAN_MOTION_DOT":0.00015274,"MEAN_MOTION_DDOT":0},{"OBJECT_NAME":"FLOCK 4G-20","OBJECT_ID":"2025-009AD","EPOCH":"2026-07-05T04:05:12.572160","CLASSIFICATION_TYPE":"U","MEAN_MOTION":15.58307659,"ECCENTRICITY":0.00056011,"INCLINATION":97.3844,"RA_OF_ASC_NODE":271.2012,"ARG_OF_PERICENTER":225.763,"MEAN_ANOMALY":134.3166,"EPHEMERIS_TYPE":0,"NORAD_CAT_ID":62636,"ELEMENT_SET_NO":999,"REV_AT_EPOCH":8191,"BSTAR":0.002913159,"MEAN_MOTION_DOT":0.00226654,"MEAN_MOTION_DDOT":0},{"OBJECT_NAME":"FLOCK 4G-24","OBJECT_ID":"2025-009AE","EPOCH":"2026-07-04T11:21:13.692096","CLASSIFICATION_TYPE":"U","MEAN_MOTION":15.30203794,"ECCENTRICITY":0.0002622,"INCLINATION":97.4021,"RA_OF_ASC_NODE":267.6906,"ARG_OF_PERICENTER":198.559,"MEAN_ANOMALY":161.5555,"EPHEMERIS_TYPE":0,"NORAD_CAT_ID":62637,"ELEMENT_SET_NO":999,"REV_AT_EPOCH":8157,"BSTAR":0.00051145308,"MEAN_MOTION_DOT":0.00014884,"MEAN_MOTION_DDOT":0},{"OBJECT_NAME":"FLOCK 4G-3","OBJECT_ID":"2025-009AG","EPOCH":"2026-07-05T04:22:32.781504","CLASSIFICATION_TYPE":"U","MEAN_MOTION":15.29728073,"ECCENTRICITY":0.00022368,"INCLINATION":97.402,"RA_OF_ASC_NODE":268.1129,"ARG_OF_PERICENTER":202.312,"MEAN_ANOMALY":157.8023,"EPHEMERIS_TYPE":0,"NORAD_CAT_ID":62639,"ELEMENT_SET_NO":999,"REV_AT_EPOCH":8165,"BSTAR":0.00067528811,"MEAN_MOTION_DOT":0.00019401,"MEAN_MOTION_DDOT":0},{"OBJECT_NAME":"FLOCK 4G-27","OBJECT_ID":"2025-009AJ","EPOCH":"2026-07-05T04:50:09.830688","CLASSIFICATION_TYPE":"U","MEAN_MOTION":15.29666652,"ECCENTRICITY":0.00016112,"INCLINATION":97.3927,"RA_OF_ASC_NODE":267.4931,"ARG_OF_PERICENTER":200.4043,"MEAN_ANOMALY":159.7133,"EPHEMERIS_TYPE":0,"NORAD_CAT_ID":62641,"ELEMENT_SET_NO":999,"REV_AT_EPOCH":8165,"BSTAR":0.000585621,"MEAN_MOTION_DOT":0.00016777,"MEAN_MOTION_DDOT":0},{"OBJECT_NAME":"FLOCK 4G-29","OBJECT_ID":"2025-009AK","EPOCH":"2026-07-05T04:29:37.803840","CLASSIFICATION_TYPE":"U","MEAN_MOTION":15.29740694,"ECCENTRICITY":0.00023913,"INCLINATION":97.4016,"RA_OF_ASC_NODE":268.0784,"ARG_OF_PERICENTER":197.2943,"MEAN_ANOMALY":162.8216,"EPHEMERIS_TYPE":0,"NORAD_CAT_ID":62642,"ELEMENT_SET_NO":999,"REV_AT_EPOCH":8165,"BSTAR":0.00056774606,"MEAN_MOTION_DOT":0.00016299,"MEAN_MOTION_DDOT":0},{"OBJECT_NAME":"FLOCK 4G-22","OBJECT_ID":"2025-009AN","EPOCH":"2026-07-04T19:30:05.104512","CLASSIFICATION_TYPE":"U","MEAN_MOTION":15.2961675,"ECCENTRICITY":0.00019484,"INCLINATION":97.4002,"RA_OF_ASC_NODE":267.7428,"ARG_OF_PERICENTER":191.1479,"MEAN_ANOMALY":168.9719,"EPHEMERIS_TYPE":0,"NORAD_CAT_ID":62645,"ELEMENT_SET_NO":999,"REV_AT_EPOCH":8161,"BSTAR":0.00062966006,"MEAN_MOTION_DOT":0.0001802,"MEAN_MOTION_DDOT":0}]}
